{
  "norad_id": 63122,
  "name": "STARLINK-32961",
  "history": [
    {
      "epoch": "2026-03-28T12:08:42.106560",
      "apogee_km": 483.7747261163304,
      "perigee_km": 482.20586074941457,
      "latitude_deg": 9.61767586031249,
      "longitude_deg": -179.21988160000183,
      "semi_major_axis_km": 6861.127293432873,
      "eccentricity": 0.00011433,
      "inclination_deg": 42.9984,
      "raan_deg": 266.5958,
      "arg_perigee_deg": 278.3266,
      "mean_anomaly_deg": 81.7456,
      "mean_motion_rev_day": 15.27599638
    }
  ]
}