{"fetched_at":"2026-03-29T16:36:15Z","count":15609,"tles":[{"name":"STARLINK-32961","line1":"1 63122U 25039U   26087.50604290  .00032447  00000+0  11827-2 0  9992","line2":"2 63122  42.9984 266.5958 0001143 278.3266  81.7456 15.27599638 60941","category":"Starlink"}]}